{"epoch":1784710044,"count":18256,"objects":[{"id":"68504","name":"ICEYE-X72","type":"PAYLOAD","l1":"1 68504U 26067CS  26202.32036100  .00143696  00000-0  12096-1 0  9999","l2":"2 68504  97.7635 160.2483 0001449 177.4131 182.7098 14.97475418 16820"},{"id":"68995","name":"ICEYE-X78","type":"PAYLOAD","l1":"1 68995U 26100R   26202.28363720  .00000519  00000-0  56871-4 0  9995","l2":"2 68995  97.7326  99.1011 0003233  42.1014 318.0453 14.91819332 11789"},{"id":"68996","name":"ICEYE-X82","type":"PAYLOAD","l1":"1 68996U 26100S   26202.64260181  .00001647  00000-0  17026-3 0  9994","l2":"2 68996  97.7319  99.3932 0005481  47.7667 312.4016 14.91443795 11833"}]}