{"fetched_at":"2026-07-22T07:09:49.041Z","source":"https://celestrak.org/NORAD/elements/gp.php?NAME=ICEYE&FORMAT=JSON","constellation":"iceye","records":[{"OBJECT_NAME":"ICEYE-X72","OBJECT_ID":"2026-067CS","EPOCH":"2026-07-21T07:41:19.190400","CLASSIFICATION_TYPE":"U","MEAN_MOTION":14.97475418,"ECCENTRICITY":0.00014493,"INCLINATION":97.7635,"RA_OF_ASC_NODE":160.2483,"ARG_OF_PERICENTER":177.4131,"MEAN_ANOMALY":182.7098,"EPHEMERIS_TYPE":0,"NORAD_CAT_ID":68504,"ELEMENT_SET_NO":999,"REV_AT_EPOCH":1682,"BSTAR":0.012096156,"MEAN_MOTION_DOT":0.00143696,"MEAN_MOTION_DDOT":0},{"OBJECT_NAME":"ICEYE-X78","OBJECT_ID":"2026-100R","EPOCH":"2026-07-21T06:48:26.254080","CLASSIFICATION_TYPE":"U","MEAN_MOTION":14.91819332,"ECCENTRICITY":0.00032328,"INCLINATION":97.7326,"RA_OF_ASC_NODE":99.1011,"ARG_OF_PERICENTER":42.1014,"MEAN_ANOMALY":318.0453,"EPHEMERIS_TYPE":0,"NORAD_CAT_ID":68995,"ELEMENT_SET_NO":999,"REV_AT_EPOCH":1178,"BSTAR":0.000056871049,"MEAN_MOTION_DOT":0.00000519,"MEAN_MOTION_DDOT":0},{"OBJECT_NAME":"ICEYE-X82","OBJECT_ID":"2026-100S","EPOCH":"2026-07-21T15:25:20.796384","CLASSIFICATION_TYPE":"U","MEAN_MOTION":14.91443795,"ECCENTRICITY":0.00054808,"INCLINATION":97.7319,"RA_OF_ASC_NODE":99.3932,"ARG_OF_PERICENTER":47.7667,"MEAN_ANOMALY":312.4016,"EPHEMERIS_TYPE":0,"NORAD_CAT_ID":68996,"ELEMENT_SET_NO":999,"REV_AT_EPOCH":1183,"BSTAR":0.0001702615,"MEAN_MOTION_DOT":0.00001647,"MEAN_MOTION_DDOT":0}]}
